[{"OBJECT_NAME":"GLOBAL-17","OBJECT_ID":"2021-120A","EPOCH":"2026-03-09T00:01:20.158464","MEAN_MOTION":15.46963122,"ECCENTRICITY":0.00122702,"INCLINATION":41.9954,"RA_OF_ASC_NODE":283.9751,"ARG_OF_PERICENTER":270.4328,"MEAN_ANOMALY":89.5109,"EPHEMERIS_TYPE":0,"CLASSIFICATION_TYPE":"U","NORAD_CAT_ID":49949,"ELEMENT_SET_NO":999,"REV_AT_EPOCH":23935,"BSTAR":0.00066818062,"MEAN_MOTION_DOT":0.00034493,"MEAN_MOTION_DDOT":0},{"OBJECT_NAME":"CZ-1 DEB","OBJECT_ID":"1970-034D","EPOCH":"2026-03-09T20:10:39.614592","MEAN_MOTION":13.9655912,"ECCENTRICITY":0.06611872,"INCLINATION":68.3694,"RA_OF_ASC_NODE":240.5133,"ARG_OF_PERICENTER":139.7447,"MEAN_ANOMALY":225.4605,"EPHEMERIS_TYPE":0,"CLASSIFICATION_TYPE":"U","NORAD_CAT_ID":25882,"ELEMENT_SET_NO":999,"REV_AT_EPOCH":30910,"BSTAR":0.0010001113,"MEAN_MOTION_DOT":9.706e-5,"MEAN_MOTION_DDOT":0}]
